{
  "type": "FeatureCollection",
  "features": [
    {
      "type": "Feature",
      "properties": {
        "norad_id": 32128,
        "name": "FENGYUN 1C DEB",
        "group": "fengyun-1c-debris",
        "lat": -76.80195941855088,
        "lon": 175.7817568477521,
        "alt_km": 739.2130157132015,
        "timestamp": "2025-12-18T08:58:43.697081+00:00",
        "meta_object_name": "FENGYUN 1C DEB",
        "meta_object_id": "1999-025CRW",
        "meta_epoch": "2025-12-14T21:03:58.317984",
        "meta_mean_motion": 13.94226768,
        "meta_eccentricity": 0.0397234,
        "meta_inclination": 99.0319,
        "meta_ra_of_asc_node": 35.0592,
        "meta_arg_of_pericenter": 217.0063,
        "meta_mean_anomaly": 140.309,
        "meta_ephemeris_type": 0,
        "meta_classification_type": "U",
        "meta_norad_cat_id": 32128,
        "meta_element_set_no": 999,
        "meta_rev_at_epoch": 63015,
        "meta_bstar": 0.00040307328,
        "meta_mean_motion_dot": 9.82e-06,
        "meta_mean_motion_ddot": 0,
        "tle_line1": "1 32128U 99025CRW 25348.87775831  .00000982  00000+0  40307-3 0  9994",
        "tle_line2": "2 32128  99.0319  35.0592 0397234 217.0063 140.3090 13.94226768630150"
      },
      "geometry": {
        "type": "Point",
        "coordinates": [
          175.7817568477521,
          -76.80195941855088
        ]
      }
    },
    {
      "type": "Feature",
      "properties": {
        "norad_id": 32129,
        "name": "FENGYUN 1C DEB",
        "group": "fengyun-1c-debris",
        "lat": 53.89386143852923,
        "lon": -56.376548963848656,
        "alt_km": 805.978939865854,
        "timestamp": "2025-12-18T08:58:43.697091+00:00",
        "meta_object_name": "FENGYUN 1C DEB",
        "meta_object_id": "1999-025CRX",
        "meta_epoch": "2025-12-15T06:35:06.946944",
        "meta_mean_motion": 14.28524934,
        "meta_eccentricity": 0.00675694,
        "meta_inclination": 99.0595,
        "meta_ra_of_asc_node": 107.7711,
        "meta_arg_of_pericenter": 26.1912,
        "meta_mean_anomaly": 5.9768,
        "meta_ephemeris_type": 0,
        "meta_classification_type": "U",
        "meta_norad_cat_id": 32129,
        "meta_element_set_no": 999,
        "meta_rev_at_epoch": 94263,
        "meta_bstar": 0.0015513104,
        "meta_mean_motion_dot": 3.939e-05,
        "meta_mean_motion_ddot": 0,
        "tle_line1": "1 32129U 99025CRX 25349.27438596  .00003939  00000+0  15513-2 0  9999",
        "tle_line2": "2 32129  99.0595 107.7711 0067569  26.1912   5.9768 14.28524934942635"
      },
      "geometry": {
        "type": "Point",
        "coordinates": [
          -56.376548963848656,
          53.89386143852923
        ]
      }
    },
    {
      "type": "Feature",
      "properties": {
        "norad_id": 32130,
        "name": "FENGYUN 1C DEB",
        "group": "fengyun-1c-debris",
        "lat": 7.17127799650379,
        "lon": -19.785256657035287,
        "alt_km": 813.982198704236,
        "timestamp": "2025-12-18T08:58:43.697101+00:00",
        "meta_object_name": "FENGYUN 1C DEB",
        "meta_object_id": "1999-025CRY",
        "meta_epoch": "2025-12-16T17:45:08.612064",
        "meta_mean_motion": 14.37558126,
        "meta_eccentricity": 0.00823888,
        "meta_inclination": 98.9033,
        "meta_ra_of_asc_node": 157.3928,
        "meta_arg_of_pericenter": 318.2989,
        "meta_mean_anomaly": 41.1935,
        "meta_ephemeris_type": 0,
        "meta_classification_type": "U",
        "meta_norad_cat_id": 32130,
        "meta_element_set_no": 999,
        "meta_rev_at_epoch": 96292,
        "meta_bstar": 0.00039412838,
        "meta_mean_motion_dot": 1.18e-05,
        "meta_mean_motion_ddot": 0,
        "tle_line1": "1 32130U 99025CRY 25350.73968301  .00001180  00000+0  39413-3 0  9998",
        "tle_line2": "2 32130  98.9033 157.3928 0082388 318.2989  41.1935 14.37558126962920"
      },
      "geometry": {
        "type": "Point",
        "coordinates": [
          -19.785256657035287,
          7.17127799650379
        ]
      }
    },
    {
      "type": "Feature",
      "properties": {
        "norad_id": 32133,
        "name": "FENGYUN 1C DEB",
        "group": "fengyun-1c-debris",
        "lat": 26.149090444012355,
        "lon": 177.4750331463767,
        "alt_km": 821.286664448483,
        "timestamp": "2025-12-18T08:58:43.697112+00:00",
        "meta_object_name": "FENGYUN 1C DEB",
        "meta_object_id": "1999-025CSB",
        "meta_epoch": "2025-12-14T11:07:28.655904",
        "meta_mean_motion": 14.18073011,
        "meta_eccentricity": 0.0036436,
        "meta_inclination": 98.4317,
        "meta_ra_of_asc_node": 349.5844,
        "meta_arg_of_pericenter": 96.0105,
        "meta_mean_anomaly": 264.5225,
        "meta_ephemeris_type": 0,
        "meta_classification_type": "U",
        "meta_norad_cat_id": 32133,
        "meta_element_set_no": 999,
        "meta_rev_at_epoch": 94999,
        "meta_bstar": 0.00024822203,
        "meta_mean_motion_dot": 4.72e-06,
        "meta_mean_motion_ddot": 0,
        "tle_line1": "1 32133U 99025CSB 25348.46352611  .00000472  00000+0  24822-3 0  9990",
        "tle_line2": "2 32133  98.4317 349.5844 0036436  96.0105 264.5225 14.18073011949998"
      },
      "geometry": {
        "type": "Point",
        "coordinates": [
          177.4750331463767,
          26.149090444012355
        ]
      }
    },
    {
      "type": "Feature",
      "properties": {
        "norad_id": 32134,
        "name": "FENGYUN 1C DEB",
        "group": "fengyun-1c-debris",
        "lat": 72.43671902762031,
        "lon": -33.11316071366342,
        "alt_km": 997.8504552592358,
        "timestamp": "2025-12-18T08:58:43.697122+00:00",
        "meta_object_name": "FENGYUN 1C DEB",
        "meta_object_id": "1999-025CSC",
        "meta_epoch": "2025-12-17T11:24:43.243200",
        "meta_mean_motion": 14.21573578,
        "meta_eccentricity": 0.02590122,
        "meta_inclination": 98.594,
        "meta_ra_of_asc_node": 354.5516,
        "meta_arg_of_pericenter": 249.81,
        "meta_mean_anomaly": 269.0237,
        "meta_ephemeris_type": 0,
        "meta_classification_type": "U",
        "meta_norad_cat_id": 32134,
        "meta_element_set_no": 999,
        "meta_rev_at_epoch": 95214,
        "meta_bstar": 0.00046613441,
        "meta_mean_motion_dot": 1.386e-05,
        "meta_mean_motion_ddot": 0,
        "tle_line1": "1 32134U 99025CSC 25351.47550050  .00001386  00000+0  46613-3 0  9990",
        "tle_line2": "2 32134  98.5940 354.5516 0259012 249.8100 269.0237 14.21573578952145"
      },
      "geometry": {
        "type": "Point",
        "coordinates": [
          -33.11316071366342,
          72.43671902762031
        ]
      }
    },
    {
      "type": "Feature",
      "properties": {
        "norad_id": 32137,
        "name": "FENGYUN 1C DEB",
        "group": "fengyun-1c-debris",
        "lat": -19.59213191062172,
        "lon": 122.94899653016978,
        "alt_km": 523.1678959173742,
        "timestamp": "2025-12-18T08:58:43.697132+00:00",
        "meta_object_name": "FENGYUN 1C DEB",
        "meta_object_id": "1999-025CSF",
        "meta_epoch": "2025-12-17T15:13:57.776736",
        "meta_mean_motion": 14.81308237,
        "meta_eccentricity": 0.0187224,
        "meta_inclination": 98.441,
        "meta_ra_of_asc_node": 119.1403,
        "meta_arg_of_pericenter": 18.4875,
        "meta_mean_anomaly": 342.302,
        "meta_ephemeris_type": 0,
        "meta_classification_type": "U",
        "meta_norad_cat_id": 32137,
        "meta_element_set_no": 999,
        "meta_rev_at_epoch": 66803,
        "meta_bstar": 0.00053850151,
        "meta_mean_motion_dot": 5.625e-05,
        "meta_mean_motion_ddot": 0,
        "tle_line1": "1 32137U 99025CSF 25351.63469649  .00005625  00000+0  53850-3 0  9995",
        "tle_line2": "2 32137  98.4410 119.1403 0187224  18.4875 342.3020 14.81308237668034"
      },
      "geometry": {
        "type": "Point",
        "coordinates": [
          122.94899653016978,
          -19.59213191062172
        ]
      }
    },
    {
      "type": "Feature",
      "properties": {
        "norad_id": 32141,
        "name": "FENGYUN 1C DEB",
        "group": "fengyun-1c-debris",
        "lat": -9.36221097685309,
        "lon": 173.1010419206184,
        "alt_km": 832.5220631019029,
        "timestamp": "2025-12-18T08:58:43.697143+00:00",
        "meta_object_name": "FENGYUN 1C DEB",
        "meta_object_id": "1999-025CSK",
        "meta_epoch": "2025-11-20T23:04:46.058016",
        "meta_mean_motion": 14.03501767,
        "meta_eccentricity": 0.00731678,
        "meta_inclination": 98.7436,
        "meta_ra_of_asc_node": 328.1999,
        "meta_arg_of_pericenter": 269.2169,
        "meta_mean_anomaly": 90.0615,
        "meta_ephemeris_type": 0,
        "meta_classification_type": "U",
        "meta_norad_cat_id": 32141,
        "meta_element_set_no": 999,
        "meta_rev_at_epoch": 94638,
        "meta_bstar": 0.00056632309,
        "meta_mean_motion_dot": 8.66e-06,
        "meta_mean_motion_ddot": 0,
        "tle_line1": "1 32141U 99025CSK 25324.96164419  .00000866  00000+0  56632-3 0  9996",
        "tle_line2": "2 32141  98.7436 328.1999 0073167 269.2169  90.0615 14.03501767946385"
      },
      "geometry": {
        "type": "Point",
        "coordinates": [
          173.1010419206184,
          -9.36221097685309
        ]
      }
    }
  ]
}